[{"OBJECT_NAME":"SHIYAN-28B 02","OBJECT_ID":"2025-177A","EPOCH":"2026-03-09T22:20:04.170912","MEAN_MOTION":14.29345292,"ECCENTRICITY":0.00031847,"INCLINATION":10.9983,"RA_OF_ASC_NODE":220.6467,"ARG_OF_PERICENTER":128.0226,"MEAN_ANOMALY":232.029,"EPHEMERIS_TYPE":0,"CLASSIFICATION_TYPE":"U","NORAD_CAT_ID":65226,"ELEMENT_SET_NO":999,"REV_AT_EPOCH":2931,"BSTAR":0.00012341019,"MEAN_MOTION_DOT":7.51e-6,"MEAN_MOTION_DDOT":0},{"OBJECT_NAME":"DELTA 1 DEB","OBJECT_ID":"1978-026DF","EPOCH":"2026-03-09T08:37:45.559776","MEAN_MOTION":14.20322119,"ECCENTRICITY":0.00955525,"INCLINATION":99.0073,"RA_OF_ASC_NODE":214.334,"ARG_OF_PERICENTER":131.0799,"MEAN_ANOMALY":283.6835,"EPHEMERIS_TYPE":0,"CLASSIFICATION_TYPE":"U","NORAD_CAT_ID":12262,"ELEMENT_SET_NO":999,"REV_AT_EPOCH":29027,"BSTAR":0.0018460016,"MEAN_MOTION_DOT":4.093e-5,"MEAN_MOTION_DDOT":0}]
